{
  "type": "FeatureCollection",
  "features": [
    {
      "type": "Feature",
      "properties": {
        "norad_id": 41866,
        "name": "GOES 16",
        "group": "weather",
        "lat": 0.029406307388946618,
        "lon": 129.5234005380788,
        "alt_km": 35794.84163930308,
        "timestamp": "2025-12-02T10:50:46.915350+00:00",
        "meta_object_name": "GOES 16",
        "meta_object_id": "2016-071A",
        "meta_epoch": "2025-12-02T03:00:47.393856",
        "meta_mean_motion": 1.00270511,
        "meta_eccentricity": 0.0003366,
        "meta_inclination": 0.0552,
        "meta_ra_of_asc_node": 108.4707,
        "meta_arg_of_pericenter": 147.2579,
        "meta_mean_anomaly": 116.0362,
        "meta_ephemeris_type": 0,
        "meta_classification_type": "U",
        "meta_norad_cat_id": 41866,
        "meta_element_set_no": 999,
        "meta_rev_at_epoch": 3312,
        "meta_bstar": 0,
        "meta_mean_motion_dot": -7e-07,
        "meta_mean_motion_ddot": 0,
        "tle_line1": "1 41866U 16071A   25336.12554854 -.00000070  00000+0  00000+0 0  9999",
        "tle_line2": "2 41866   0.0552 108.4707 0003366 147.2579 116.0362  1.00270511 33124"
      },
      "geometry": {
        "type": "Point",
        "coordinates": [
          129.5234005380788,
          0.029406307388946618
        ]
      }
    },
    {
      "type": "Feature",
      "properties": {
        "norad_id": 41882,
        "name": "FENGYUN 4A",
        "group": "weather",
        "lat": -1.7957147224699093,
        "lon": -2.027347694288358,
        "alt_km": 35799.07490587554,
        "timestamp": "2025-12-02T10:50:46.915363+00:00",
        "meta_object_name": "FENGYUN 4A",
        "meta_object_id": "2016-077A",
        "meta_epoch": "2025-12-01T22:57:48.238848",
        "meta_mean_motion": 1.00279059,
        "meta_eccentricity": 0.0004988,
        "meta_inclination": 1.8195,
        "meta_ra_of_asc_node": 82.4934,
        "meta_arg_of_pericenter": 141.0173,
        "meta_mean_anomaly": 315.6982,
        "meta_ephemeris_type": 0,
        "meta_classification_type": "U",
        "meta_norad_cat_id": 41882,
        "meta_element_set_no": 999,
        "meta_rev_at_epoch": 3295,
        "meta_bstar": 0,
        "meta_mean_motion_dot": -3.35e-06,
        "meta_mean_motion_ddot": 0,
        "tle_line1": "1 41882U 16077A   25335.95680832 -.00000335  00000+0  00000+0 0  9993",
        "tle_line2": "2 41882   1.8195  82.4934 0004988 141.0173 315.6982  1.00279059 32951"
      },
      "geometry": {
        "type": "Point",
        "coordinates": [
          -2.027347694288358,
          -1.7957147224699093
        ]
      }
    },
    {
      "type": "Feature",
      "properties": {
        "norad_id": 41884,
        "name": "CYGFM05",
        "group": "weather",
        "lat": -10.241827159804057,
        "lon": -50.70713483400918,
        "alt_km": 428.1262707228925,
        "timestamp": "2025-12-02T10:50:46.915375+00:00",
        "meta_object_name": "CYGFM05",
        "meta_object_id": "2016-078A",
        "meta_epoch": "2025-12-01T20:03:25.166016",
        "meta_mean_motion": 15.47023859,
        "meta_eccentricity": 0.0009408,
        "meta_inclination": 34.9578,
        "meta_ra_of_asc_node": 118.3257,
        "meta_arg_of_pericenter": 77.6657,
        "meta_mean_anomaly": 282.5117,
        "meta_ephemeris_type": 0,
        "meta_classification_type": "U",
        "meta_norad_cat_id": 41884,
        "meta_element_set_no": 999,
        "meta_rev_at_epoch": 49807,
        "meta_bstar": 0.00043588,
        "meta_mean_motion_dot": 0.00022753,
        "meta_mean_motion_ddot": 0,
        "tle_line1": "1 41884U 16078A   25335.83570794  .00022753  00000+0  43588-3 0  9997",
        "tle_line2": "2 41884  34.9578 118.3257 0009408  77.6657 282.5117 15.47023859498077"
      },
      "geometry": {
        "type": "Point",
        "coordinates": [
          -50.70713483400918,
          -10.241827159804057
        ]
      }
    },
    {
      "type": "Feature",
      "properties": {
        "norad_id": 41885,
        "name": "CYGFM04",
        "group": "weather",
        "lat": -12.837396333105445,
        "lon": 70.317113847039,
        "alt_km": 422.30183173183104,
        "timestamp": "2025-12-02T10:50:46.915386+00:00",
        "meta_object_name": "CYGFM04",
        "meta_object_id": "2016-078B",
        "meta_epoch": "2025-12-01T17:56:12.662592",
        "meta_mean_motion": 15.49568378,
        "meta_eccentricity": 0.0008511,
        "meta_inclination": 34.9335,
        "meta_ra_of_asc_node": 93.9902,
        "meta_arg_of_pericenter": 107.3398,
        "meta_mean_anomaly": 252.8256,
        "meta_ephemeris_type": 0,
        "meta_classification_type": "U",
        "meta_norad_cat_id": 41885,
        "meta_element_set_no": 999,
        "meta_rev_at_epoch": 49823,
        "meta_bstar": 0.0011322,
        "meta_mean_motion_dot": 0.00065033,
        "meta_mean_motion_ddot": 0,
        "tle_line1": "1 41885U 16078B   25335.74736878  .00065033  00000+0  11322-2 0  9993",
        "tle_line2": "2 41885  34.9335  93.9902 0008511 107.3398 252.8256 15.49568378498235"
      },
      "geometry": {
        "type": "Point",
        "coordinates": [
          70.317113847039,
          -12.837396333105445
        ]
      }
    },
    {
      "type": "Feature",
      "properties": {
        "norad_id": 41886,
        "name": "CYGFM02",
        "group": "weather",
        "lat": -29.778372942885124,
        "lon": 32.793796615041984,
        "alt_km": 422.323075922729,
        "timestamp": "2025-12-02T10:50:46.915397+00:00",
        "meta_object_name": "CYGFM02",
        "meta_object_id": "2016-078C",
        "meta_epoch": "2025-12-02T00:17:30.788160",
        "meta_mean_motion": 15.5101423,
        "meta_eccentricity": 0.0010129,
        "meta_inclination": 34.9428,
        "meta_ra_of_asc_node": 90.7182,
        "meta_arg_of_pericenter": 109.3864,
        "meta_mean_anomaly": 250.7953,
        "meta_ephemeris_type": 0,
        "meta_classification_type": "U",
        "meta_norad_cat_id": 41886,
        "meta_element_set_no": 999,
        "meta_rev_at_epoch": 49840,
        "meta_bstar": 0.00045957,
        "meta_mean_motion_dot": 0.0002765,
        "meta_mean_motion_ddot": 0,
        "tle_line1": "1 41886U 16078C   25336.01216190  .00027650  00000+0  45957-3 0  9990",
        "tle_line2": "2 41886  34.9428  90.7182 0010129 109.3864 250.7953 15.51014230498408"
      },
      "geometry": {
        "type": "Point",
        "coordinates": [
          32.793796615041984,
          -29.778372942885124
        ]
      }
    },
    {
      "type": "Feature",
      "properties": {
        "norad_id": 41887,
        "name": "CYGFM01",
        "group": "weather",
        "lat": -22.044958090862995,
        "lon": -27.823961615453698,
        "alt_km": 430.05987945668767,
        "timestamp": "2025-12-02T10:50:46.915408+00:00",
        "meta_object_name": "CYGFM01",
        "meta_object_id": "2016-078D",
        "meta_epoch": "2025-12-02T02:09:23.269824",
        "meta_mean_motion": 15.47596984,
        "meta_eccentricity": 0.0009064,
        "meta_inclination": 34.9408,
        "meta_ra_of_asc_node": 119.091,
        "meta_arg_of_pericenter": 71.3523,
        "meta_mean_anomaly": 288.8182,
        "meta_ephemeris_type": 0,
        "meta_classification_type": "U",
        "meta_norad_cat_id": 41887,
        "meta_element_set_no": 999,
        "meta_rev_at_epoch": 49805,
        "meta_bstar": 0.00045402,
        "meta_mean_motion_dot": 0.00024183,
        "meta_mean_motion_ddot": 0,
        "tle_line1": "1 41887U 16078D   25336.08985266  .00024183  00000+0  45402-3 0  9998",
        "tle_line2": "2 41887  34.9408 119.0910 0009064  71.3523 288.8182 15.47596984498050"
      },
      "geometry": {
        "type": "Point",
        "coordinates": [
          -27.823961615453698,
          -22.044958090862995
        ]
      }
    },
    {
      "type": "Feature",
      "properties": {
        "norad_id": 41888,
        "name": "CYGFM08",
        "group": "weather",
        "lat": -23.958522648883466,
        "lon": -40.642160220239965,
        "alt_km": 425.72019381991504,
        "timestamp": "2025-12-02T10:50:46.915420+00:00",
        "meta_object_name": "CYGFM08",
        "meta_object_id": "2016-078E",
        "meta_epoch": "2025-12-01T18:24:36.537984",
        "meta_mean_motion": 15.48751854,
        "meta_eccentricity": 0.001064,
        "meta_inclination": 34.9442,
        "meta_ra_of_asc_node": 104.3169,
        "meta_arg_of_pericenter": 94.5442,
        "meta_mean_anomaly": 265.6495,
        "meta_ephemeris_type": 0,
        "meta_classification_type": "U",
        "meta_norad_cat_id": 41888,
        "meta_element_set_no": 999,
        "meta_rev_at_epoch": 49823,
        "meta_bstar": 0.00042339,
        "meta_mean_motion_dot": 0.00023493,
        "meta_mean_motion_ddot": 0,
        "tle_line1": "1 41888U 16078E   25335.76708956  .00023493  00000+0  42339-3 0  9991",
        "tle_line2": "2 41888  34.9442 104.3169 0010640  94.5442 265.6495 15.48751854498231"
      },
      "geometry": {
        "type": "Point",
        "coordinates": [
          -40.642160220239965,
          -23.958522648883466
        ]
      }
    }
  ]
}